GLOBALSTAR M067 [+]     
1 32263U 07048A   24004.71398802 -.00000116  00000+0 -14047-3 0  9991
2 32263  51.9718 145.1646 0000230 114.1081 351.1126 12.40636542743766
GLOBALSTAR M070 [+]     
1 32264U 07048B   24004.01754133 -.00000076  00000+0  15611-3 0  9990
2 32264  51.9767 303.5686 0000927  36.9481  43.9533 12.62283907746716
GLOBALSTAR M066 [+]     
1 32265U 07048C   24004.86360715 -.00000090  00000+0  77079-4 0  9996
2 32265  51.9654 163.0157 0001846 122.5678  36.0027 12.62279092749089
GLOBALSTAR M068 [-]     
1 32266U 07048D   24004.64472087 -.00000069  00000+0  19095-3 0  9998
2 32266  51.9882 116.4106 0001467  88.7365  19.7383 12.62775877750654
GLOBALSTAR M079 [+]     
1 37188U 10054A   24004.82216036 -.00000095  00000+0  46784-4 0  9992
2 37188  52.0059 311.2590 0000388  56.2029 321.2268 12.62271074609601
GLOBALSTAR M074 [+]     
1 37189U 10054B   24004.84997823 -.00000094  00000+0  52109-4 0  9992
2 37189  52.0035 310.5794 0000609  49.0206 334.6727 12.62263637610210
GLOBALSTAR M076 [+]     
1 37190U 10054C   24004.87352608 -.00000091  00000+0  69887-4 0  9991
2 37190  52.0049 310.6338 0000470 344.8128  24.1607 12.62257303609935
GLOBALSTAR M077 [+]     
1 37191U 10054D   24004.95606742 -.00000087  00000+0  91896-4 0  9992
2 37191  52.0071 267.0863 0000918  56.1928  28.1693 12.62268219610318
